{
  "type": "FeatureCollection",
  "features": [
    {
      "type": "Feature",
      "properties": {
        "norad_id": 36036,
        "name": "SMOS",
        "group": "resource",
        "lat": -19.087919307426397,
        "lon": 175.67862593233855,
        "alt_km": 764.5682732066407,
        "timestamp": "2025-12-13T16:48:32.370155+00:00",
        "meta_object_name": "SMOS",
        "meta_object_id": "2009-059A",
        "meta_epoch": "2025-12-13T00:13:08.932224",
        "meta_mean_motion": 14.39741491,
        "meta_eccentricity": 0.00011082,
        "meta_inclination": 98.438,
        "meta_ra_of_asc_node": 172.0535,
        "meta_arg_of_pericenter": 83.8778,
        "meta_mean_anomaly": 276.2537,
        "meta_ephemeris_type": 0,
        "meta_classification_type": "U",
        "meta_norad_cat_id": 36036,
        "meta_element_set_no": 999,
        "meta_rev_at_epoch": 84666,
        "meta_bstar": 0.00019924799,
        "meta_mean_motion_dot": 5.81e-06,
        "meta_mean_motion_ddot": 0,
        "tle_line1": "1 36036U 09059A   25347.00913116  .00000581  00000+0  19925-3 0  9995",
        "tle_line2": "2 36036  98.4380 172.0535 0001108  83.8778 276.2537 14.39741491846661"
      },
      "geometry": {
        "type": "Point",
        "coordinates": [
          175.67862593233855,
          -19.087919307426397
        ]
      }
    },
    {
      "type": "Feature",
      "properties": {
        "norad_id": 36110,
        "name": "YAOGAN-7",
        "group": "resource",
        "lat": -61.94315280600646,
        "lon": -115.18732206438891,
        "alt_km": 628.1303064671138,
        "timestamp": "2025-12-13T16:48:32.370165+00:00",
        "meta_object_name": "YAOGAN-7",
        "meta_object_id": "2009-069A",
        "meta_epoch": "2025-12-12T15:05:29.426784",
        "meta_mean_motion": 14.77732535,
        "meta_eccentricity": 0.00233806,
        "meta_inclination": 98.03,
        "meta_ra_of_asc_node": 228.3862,
        "meta_arg_of_pericenter": 281.6698,
        "meta_mean_anomaly": 78.1889,
        "meta_ephemeris_type": 0,
        "meta_classification_type": "U",
        "meta_norad_cat_id": 36110,
        "meta_element_set_no": 999,
        "meta_rev_at_epoch": 86207,
        "meta_bstar": 0.0001602639,
        "meta_mean_motion_dot": 1.1e-05,
        "meta_mean_motion_ddot": 0,
        "tle_line1": "1 36110U 09069A   25346.62881281  .00001100  00000+0  16026-3 0  9990",
        "tle_line2": "2 36110  98.0300 228.3862 0023380 281.6698  78.1889 14.77732535862078"
      },
      "geometry": {
        "type": "Point",
        "coordinates": [
          -115.18732206438891,
          -61.94315280600646
        ]
      }
    },
    {
      "type": "Feature",
      "properties": {
        "norad_id": 36605,
        "name": "TANDEM-X",
        "group": "resource",
        "lat": -34.17194320768741,
        "lon": -1.8405265625818161,
        "alt_km": 515.30709694504,
        "timestamp": "2025-12-13T16:48:32.370175+00:00",
        "meta_object_name": "TANDEM-X",
        "meta_object_id": "2010-030A",
        "meta_epoch": "2025-12-12T12:30:19.785312",
        "meta_mean_motion": 15.19147619,
        "meta_eccentricity": 0.00017615,
        "meta_inclination": 97.4455,
        "meta_ra_of_asc_node": 351.9037,
        "meta_arg_of_pericenter": 90.78,
        "meta_mean_anomaly": 269.3636,
        "meta_ephemeris_type": 0,
        "meta_classification_type": "U",
        "meta_norad_cat_id": 36605,
        "meta_element_set_no": 999,
        "meta_rev_at_epoch": 85830,
        "meta_bstar": 0.00012546262,
        "meta_mean_motion_dot": 2.568e-05,
        "meta_mean_motion_ddot": 0,
        "tle_line1": "1 36605U 10030A   25346.52106233  .00002568  00000+0  12546-3 0  9997",
        "tle_line2": "2 36605  97.4455 351.9037 0001761  90.7800 269.3636 15.19147619858306"
      },
      "geometry": {
        "type": "Point",
        "coordinates": [
          -1.8405265625818161,
          -34.17194320768741
        ]
      }
    },
    {
      "type": "Feature",
      "properties": {
        "norad_id": 36795,
        "name": "CARTOSAT-2B",
        "group": "resource",
        "lat": -47.34650360010946,
        "lon": -151.8411345138495,
        "alt_km": 648.4172854233802,
        "timestamp": "2025-12-13T16:48:32.370185+00:00",
        "meta_object_name": "CARTOSAT-2B",
        "meta_object_id": "2010-035A",
        "meta_epoch": "2025-12-13T01:09:59.732064",
        "meta_mean_motion": 14.78726473,
        "meta_eccentricity": 0.00130563,
        "meta_inclination": 97.7853,
        "meta_ra_of_asc_node": 36.0686,
        "meta_arg_of_pericenter": 75.6783,
        "meta_mean_anomaly": 284.5877,
        "meta_ephemeris_type": 0,
        "meta_classification_type": "U",
        "meta_norad_cat_id": 36795,
        "meta_element_set_no": 999,
        "meta_rev_at_epoch": 83234,
        "meta_bstar": 0.0002553001,
        "meta_mean_motion_dot": 1.826e-05,
        "meta_mean_motion_ddot": 0,
        "tle_line1": "1 36795U 10035A   25347.04860801  .00001826  00000+0  25530-3 0  9991",
        "tle_line2": "2 36795  97.7853  36.0686 0013056  75.6783 284.5877 14.78726473832341"
      },
      "geometry": {
        "type": "Point",
        "coordinates": [
          -151.8411345138495,
          -47.34650360010946
        ]
      }
    },
    {
      "type": "Feature",
      "properties": {
        "norad_id": 36834,
        "name": "YAOGAN-10",
        "group": "resource",
        "lat": -31.49994024714026,
        "lon": 12.404748202571636,
        "alt_km": 621.2623827521247,
        "timestamp": "2025-12-13T16:48:32.370195+00:00",
        "meta_object_name": "YAOGAN-10",
        "meta_object_id": "2010-038A",
        "meta_epoch": "2025-12-13T01:07:45.375744",
        "meta_mean_motion": 14.84612546,
        "meta_eccentricity": 0.00015338,
        "meta_inclination": 97.915,
        "meta_ra_of_asc_node": 6.8656,
        "meta_arg_of_pericenter": 82.1075,
        "meta_mean_anomaly": 356.5611,
        "meta_ephemeris_type": 0,
        "meta_classification_type": "U",
        "meta_norad_cat_id": 36834,
        "meta_element_set_no": 999,
        "meta_rev_at_epoch": 82958,
        "meta_bstar": 0.00044371101,
        "meta_mean_motion_dot": 3.696e-05,
        "meta_mean_motion_ddot": 0,
        "tle_line1": "1 36834U 10038A   25347.04705296  .00003696  00000+0  44371-3 0  9995",
        "tle_line2": "2 36834  97.9150   6.8656 0001533  82.1075 356.5611 14.84612546829583"
      },
      "geometry": {
        "type": "Point",
        "coordinates": [
          12.404748202571636,
          -31.49994024714026
        ]
      }
    },
    {
      "type": "Feature",
      "properties": {
        "norad_id": 37216,
        "name": "COSMO-SKYMED 4",
        "group": "resource",
        "lat": -62.040967598866004,
        "lon": -26.117989416604562,
        "alt_km": 630.5911216501654,
        "timestamp": "2025-12-13T16:48:32.370206+00:00",
        "meta_object_name": "COSMO-SKYMED 4",
        "meta_object_id": "2010-060A",
        "meta_epoch": "2025-12-13T01:08:01.301856",
        "meta_mean_motion": 14.82169217,
        "meta_eccentricity": 0.00013476,
        "meta_inclination": 97.8809,
        "meta_ra_of_asc_node": 168.3659,
        "meta_arg_of_pericenter": 76.9212,
        "meta_mean_anomaly": 283.2151,
        "meta_ephemeris_type": 0,
        "meta_classification_type": "U",
        "meta_norad_cat_id": 37216,
        "meta_element_set_no": 999,
        "meta_rev_at_epoch": 81699,
        "meta_bstar": 0.00010904155,
        "meta_mean_motion_dot": 8.16e-06,
        "meta_mean_motion_ddot": 0,
        "tle_line1": "1 37216U 10060A   25347.04723729  .00000816  00000+0  10904-3 0  9992",
        "tle_line2": "2 37216  97.8809 168.3659 0001347  76.9212 283.2151 14.82169217816998"
      },
      "geometry": {
        "type": "Point",
        "coordinates": [
          -26.117989416604562,
          -62.040967598866004
        ]
      }
    },
    {
      "type": "Feature",
      "properties": {
        "norad_id": 37387,
        "name": "RESOURCESAT-2",
        "group": "resource",
        "lat": -1.2995770788645673,
        "lon": 51.44885788981017,
        "alt_km": 819.5539358532897,
        "timestamp": "2025-12-13T16:48:32.370216+00:00",
        "meta_object_name": "RESOURCESAT-2",
        "meta_object_id": "2011-015A",
        "meta_epoch": "2025-12-12T22:14:02.571360",
        "meta_mean_motion": 14.21597368,
        "meta_eccentricity": 0.0006432,
        "meta_inclination": 98.7878,
        "meta_ra_of_asc_node": 50.4774,
        "meta_arg_of_pericenter": 42.2892,
        "meta_mean_anomaly": 317.878,
        "meta_ephemeris_type": 0,
        "meta_classification_type": "U",
        "meta_norad_cat_id": 37387,
        "meta_element_set_no": 999,
        "meta_rev_at_epoch": 75971,
        "meta_bstar": 0.00013092334,
        "meta_mean_motion_dot": 2.43e-06,
        "meta_mean_motion_ddot": 0,
        "tle_line1": "1 37387U 11015A   25346.92641865  .00000243  00000+0  13092-3 0  9993",
        "tle_line2": "2 37387  98.7878  50.4774 0006432  42.2892 317.8780 14.21597368759715"
      },
      "geometry": {
        "type": "Point",
        "coordinates": [
          51.44885788981017,
          -1.2995770788645673
        ]
      }
    }
  ]
}